IRIDIUM 144             
1 43249U 18030A   24086.00874224  .00000024  00000+0  14433-5 0  9996
2 43249  86.3908 270.2361 0002170  90.4075 269.7369 14.34218334313602
IRIDIUM 149             
1 43250U 18030B   24086.57323481  .00000044  00000+0  86735-5 0  9990
2 43250  86.3908 269.9759 0002096  86.4834 273.6602 14.34218478313686
IRIDIUM 157             
1 43251U 18030C   24086.52249165  .00000090  00000+0  25136-4 0  9990
2 43251  86.3909 270.0321 0001868  95.8011 264.3397 14.34218376313655
IRIDIUM 140             
1 43252U 18030D   24085.91360055  .00000199  00000+0  63893-4 0  9997
2 43252  86.3909 270.3017 0002453  88.3249 271.8228 14.34219842313624
IRIDIUM 145             
1 43253U 18030E   24085.90091880  .00000047  00000+0  97221-5 0  9999
2 43253  86.3909 270.2810 0002291  83.8414 276.3043 14.34217849313551
IRIDIUM 146             
1 43254U 18030F   24085.95165977 -.00000030  00000+0 -17640-4 0  9994
2 43254  86.3911 270.2748 0002159  83.9477 276.1965 14.34217355313573
IRIDIUM 148             
1 43255U 18030G   24086.05948182 -.00000104  00000+0 -44333-4 0  9995
2 43255  86.3911 270.2603 0001764  81.6439 278.4957 14.34217504313637
IRIDIUM 142             
1 43256U 18030H   24086.02777083  .00000082  00000+0  22340-4 0  9990
2 43256  86.3909 270.1920 0002123  85.3267 274.8171 14.34217251313587
